LANDSAT 9               
1 49260U 21088A   24298.47605074  .00001182  00000+0  27229-3 0  9994
2 49260  98.2190   6.4442 0001092  76.0472 284.0848 14.57107561163517
